{
  "type": "FeatureCollection",
  "features": [
    {
      "type": "Feature",
      "properties": {
        "norad_id": 2807,
        "name": "OPS 7218 (TRANSIT 16)",
        "group": "nnss",
        "lat": 27.49645175347302,
        "lon": 174.05660202037566,
        "alt_km": 1053.4682018180174,
        "timestamp": "2025-12-06T09:34:17.182225+00:00",
        "meta_object_name": "OPS 7218 (TRANSIT 16)",
        "meta_object_id": "1967-048A",
        "meta_epoch": "2025-12-06T00:04:17.891904",
        "meta_mean_motion": 13.50720333,
        "meta_eccentricity": 0.00216313,
        "meta_inclination": 89.6733,
        "meta_ra_of_asc_node": 354.2398,
        "meta_arg_of_pericenter": 132.2001,
        "meta_mean_anomaly": 256.5241,
        "meta_ephemeris_type": 0,
        "meta_classification_type": "U",
        "meta_norad_cat_id": 2807,
        "meta_element_set_no": 999,
        "meta_rev_at_epoch": 88185,
        "meta_bstar": 0.00025066895,
        "meta_mean_motion_dot": 1.72e-06,
        "meta_mean_motion_ddot": 0,
        "tle_line1": "1 02807U 67048A   25340.00298486  .00000172  00000+0  25067-3 0  9995",
        "tle_line2": "2 02807  89.6733 354.2398 0021631 132.2001 256.5241 13.50720333881853"
      },
      "geometry": {
        "type": "Point",
        "coordinates": [
          174.05660202037566,
          27.49645175347302
        ]
      }
    },
    {
      "type": "Feature",
      "properties": {
        "norad_id": 2965,
        "name": "OPS 4947 (TRANSIT 17)",
        "group": "nnss",
        "lat": 25.879778226544108,
        "lon": -155.44468155665206,
        "alt_km": 1064.239243933711,
        "timestamp": "2025-12-06T09:34:17.182248+00:00",
        "meta_object_name": "OPS 4947 (TRANSIT 17)",
        "meta_object_id": "1967-092A",
        "meta_epoch": "2025-12-05T21:14:54.385152",
        "meta_mean_motion": 13.53451157,
        "meta_eccentricity": 0.00458464,
        "meta_inclination": 89.2503,
        "meta_ra_of_asc_node": 24.9583,
        "meta_arg_of_pericenter": 255.0879,
        "meta_mean_anomaly": 279.1541,
        "meta_ephemeris_type": 0,
        "meta_classification_type": "U",
        "meta_norad_cat_id": 2965,
        "meta_element_set_no": 999,
        "meta_rev_at_epoch": 87004,
        "meta_bstar": 0.0003103912,
        "meta_mean_motion_dot": 2.21e-06,
        "meta_mean_motion_ddot": 0,
        "tle_line1": "1 02965U 67092A   25339.88535168  .00000221  00000+0  31039-3 0  9995",
        "tle_line2": "2 02965  89.2503  24.9583 0045846 255.0879 279.1541 13.53451157870048"
      },
      "geometry": {
        "type": "Point",
        "coordinates": [
          -155.44468155665206,
          25.879778226544108
        ]
      }
    },
    {
      "type": "Feature",
      "properties": {
        "norad_id": 3133,
        "name": "OPS 7034 (TRANSIT 18)",
        "group": "nnss",
        "lat": -13.04547451664213,
        "lon": -86.37261407722463,
        "alt_km": 1122.0118731207594,
        "timestamp": "2025-12-06T09:34:17.182261+00:00",
        "meta_object_name": "OPS 7034 (TRANSIT 18)",
        "meta_object_id": "1968-012A",
        "meta_epoch": "2025-12-05T21:31:36.702048",
        "meta_mean_motion": 13.51563444,
        "meta_eccentricity": 0.0073213,
        "meta_inclination": 90.0272,
        "meta_ra_of_asc_node": 273.6197,
        "meta_arg_of_pericenter": 189.0449,
        "meta_mean_anomaly": 237.3312,
        "meta_ephemeris_type": 0,
        "meta_classification_type": "U",
        "meta_norad_cat_id": 3133,
        "meta_element_set_no": 999,
        "meta_rev_at_epoch": 56826,
        "meta_bstar": 0.00026501947,
        "meta_mean_motion_dot": 1.85e-06,
        "meta_mean_motion_ddot": 0,
        "tle_line1": "1 03133U 68012A   25339.89695257  .00000185  00000+0  26502-3 0  9991",
        "tle_line2": "2 03133  90.0272 273.6197 0073213 189.0449 237.3312 13.51563444568262"
      },
      "geometry": {
        "type": "Point",
        "coordinates": [
          -86.37261407722463,
          -13.04547451664213
        ]
      }
    },
    {
      "type": "Feature",
      "properties": {
        "norad_id": 4507,
        "name": "NNSS 19 (TRANSIT 19)",
        "group": "nnss",
        "lat": -35.721927100224576,
        "lon": -125.46643989693436,
        "alt_km": 949.3031395003991,
        "timestamp": "2025-12-06T09:34:17.182273+00:00",
        "meta_object_name": "NNSS 19 (TRANSIT 19)",
        "meta_object_id": "1970-067A",
        "meta_epoch": "2025-12-05T17:44:56.395968",
        "meta_mean_motion": 13.51312382,
        "meta_eccentricity": 0.0171015,
        "meta_inclination": 90.0058,
        "meta_ra_of_asc_node": 234.529,
        "meta_arg_of_pericenter": 313.8154,
        "meta_mean_anomaly": 44.8961,
        "meta_ephemeris_type": 0,
        "meta_classification_type": "U",
        "meta_norad_cat_id": 4507,
        "meta_element_set_no": 999,
        "meta_rev_at_epoch": 72127,
        "meta_bstar": 0.00035550443,
        "meta_mean_motion_dot": 2.6e-06,
        "meta_mean_motion_ddot": 0,
        "tle_line1": "1 04507U 70067A   25339.73954162  .00000260  00000+0  35550-3 0  9993",
        "tle_line2": "2 04507  90.0058 234.5290 0171015 313.8154  44.8961 13.51312382721275"
      },
      "geometry": {
        "type": "Point",
        "coordinates": [
          -125.46643989693436,
          -35.721927100224576
        ]
      }
    },
    {
      "type": "Feature",
      "properties": {
        "norad_id": 6909,
        "name": "NNSS 20 (TRANSIT 20)",
        "group": "nnss",
        "lat": -62.66911994499637,
        "lon": -105.12999567141762,
        "alt_km": 1109.7476748859071,
        "timestamp": "2025-12-06T09:34:17.182285+00:00",
        "meta_object_name": "NNSS 20 (TRANSIT 20)",
        "meta_object_id": "1973-081A",
        "meta_epoch": "2025-12-05T18:07:21.224928",
        "meta_mean_motion": 13.71429624,
        "meta_eccentricity": 0.01565339,
        "meta_inclination": 89.8558,
        "meta_ra_of_asc_node": 255.1589,
        "meta_arg_of_pericenter": 98.9986,
        "meta_mean_anomaly": 262.893,
        "meta_ephemeris_type": 0,
        "meta_classification_type": "U",
        "meta_norad_cat_id": 6909,
        "meta_element_set_no": 999,
        "meta_rev_at_epoch": 80265,
        "meta_bstar": 0.00036936938,
        "meta_mean_motion_dot": 3.74e-06,
        "meta_mean_motion_ddot": 0,
        "tle_line1": "1 06909U 73081A   25339.75510677  .00000374  00000+0  36937-3 0  9997",
        "tle_line2": "2 06909  89.8558 255.1589 0156533  98.9986 262.8930 13.71429624802656"
      },
      "geometry": {
        "type": "Point",
        "coordinates": [
          -105.12999567141762,
          -62.66911994499637
        ]
      }
    },
    {
      "type": "Feature",
      "properties": {
        "norad_id": 10457,
        "name": "TRANSAT",
        "group": "nnss",
        "lat": 22.90506534794041,
        "lon": 78.97014246141032,
        "alt_km": 1094.1337303993878,
        "timestamp": "2025-12-06T09:34:17.182296+00:00",
        "meta_object_name": "TRANSAT",
        "meta_object_id": "1977-106A",
        "meta_epoch": "2025-12-05T19:46:13.467936",
        "meta_mean_motion": 13.48941961,
        "meta_eccentricity": 0.00247644,
        "meta_inclination": 89.6483,
        "meta_ra_of_asc_node": 78.8418,
        "meta_arg_of_pericenter": 209.8689,
        "meta_mean_anomaly": 262.2526,
        "meta_ephemeris_type": 0,
        "meta_classification_type": "U",
        "meta_norad_cat_id": 10457,
        "meta_element_set_no": 999,
        "meta_rev_at_epoch": 36650,
        "meta_bstar": 0.00020972293,
        "meta_mean_motion_dot": 1.42e-06,
        "meta_mean_motion_ddot": 0,
        "tle_line1": "1 10457U 77106A   25339.82376699  .00000142  00000+0  20972-3 0  9999",
        "tle_line2": "2 10457  89.6483  78.8418 0024764 209.8689 262.2526 13.48941961366509"
      },
      "geometry": {
        "type": "Point",
        "coordinates": [
          78.97014246141032,
          22.90506534794041
        ]
      }
    },
    {
      "type": "Feature",
      "properties": {
        "norad_id": 12458,
        "name": "NOVA 1",
        "group": "nnss",
        "lat": 30.23958673822151,
        "lon": -88.61128654393019,
        "alt_km": 1160.4180864436603,
        "timestamp": "2025-12-06T09:34:17.182307+00:00",
        "meta_object_name": "NOVA 1",
        "meta_object_id": "1981-044A",
        "meta_epoch": "2025-12-05T20:44:08.520000",
        "meta_mean_motion": 13.23277436,
        "meta_eccentricity": 0.00156501,
        "meta_inclination": 89.8524,
        "meta_ra_of_asc_node": 91.4824,
        "meta_arg_of_pericenter": 120.9242,
        "meta_mean_anomaly": 2.3413,
        "meta_ephemeris_type": 0,
        "meta_classification_type": "U",
        "meta_norad_cat_id": 12458,
        "meta_element_set_no": 999,
        "meta_rev_at_epoch": 15095,
        "meta_bstar": 0.00017933302,
        "meta_mean_motion_dot": 8.5e-07,
        "meta_mean_motion_ddot": 0,
        "tle_line1": "1 12458U 81044A   25339.86398750  .00000085  00000+0  17933-3 0  9993",
        "tle_line2": "2 12458  89.8524  91.4824 0015650 120.9242   2.3413 13.23277436150954"
      },
      "geometry": {
        "type": "Point",
        "coordinates": [
          -88.61128654393019,
          30.23958673822151
        ]
      }
    }
  ]
}